     2.100          NAVIGATION                              RINEX VERSION / TYPE
fic2rin                                 11/21/2016 00:09:45 PGM / RUN BY / DATE
                                                            END OF HEADER
30 16 11 20 14  0  0.0  .157526228577D-03  .909494701773D-12  .000000000000D+00
     .400000000000D+02  .302500000000D+02  .465340811884D-08  .239359444586D+01
     .154227018356D-05  .237849727273D-02  .854395329952D-05  .515374861717D+04
     .504000000000D+05 -.558793544769D-08 -.221570227616D+01  .428408384323D-07
     .950222599374D+00  .210875000000D+03 -.313348464080D+01 -.809247994141D-08
    -.302869758598D-09  .100000000000D+01  .192400000000D+04  .000000000000D+00
     .240000000000D+01  .000000000000D+00  .372529029846D-08  .400000000000D+02
     .432060000000D+05  .400000000000D+01
31 16 11 20 14  0  0.0  .235639978200D-03 -.216004991671D-11  .000000000000D+00
     .480000000000D+02  .200000000000D+02  .417695970142D-08  .224740675820D+01
     .124983489513D-05  .846733839717D-02  .875070691109D-05  .515360037422D+04
     .504000000000D+05 -.391155481339D-07 -.224719887169D+01  .465661287308D-07
     .969258886712D+00  .216968750000D+03 -.351675025911D+00 -.783854079240D-08
    -.396802242692D-09  .100000000000D+01  .192400000000D+04  .000000000000D+00
     .240000000000D+01  .000000000000D+00 -.135041773319D-07  .480000000000D+02
     .432060000000D+05  .400000000000D+01
32 16 11 20 14  0  0.0 -.206607393920D-03 -.165982783074D-10  .000000000000D+00
     .610000000000D+02  .251250000000D+02  .483698719422D-08 -.451159624426D+00
     .116974115372D-05  .603137770668D-03  .681355595589D-05  .515366168976D+04
     .504000000000D+05 -.111758708954D-07  .294988378732D+01  .186264514923D-07
     .959095735879D+00  .248875000000D+03 -.255277519550D+01 -.820569894316D-08
    -.171792870148D-09  .100000000000D+01  .192400000000D+04  .000000000000D+00
     .240000000000D+01  .000000000000D+00  .465661287308D-09  .610000000000D+02
     .432060000000D+05  .400000000000D+01
21 16 11 20 13 59 44.0 -.531041063368D-03  .102318153949D-11  .000000000000D+00
     .500000000000D+01 -.974375000000D+02  .514592863430D-08  .137484137591D+01
    -.532343983650D-05  .234305504709D-01  .813417136669D-05  .515379634476D+04
     .503840000000D+05 -.333413481712D-06  .829056154911D+00 -.499188899994D-06
     .937818751047D+00  .220250000000D+03 -.174062847033D+01 -.856785688563D-08
     .107147320259D-10  .100000000000D+01  .192400000000D+04  .000000000000D+00
     .240000000000D+01  .000000000000D+00 -.977888703346D-08  .500000000000D+01
     .462660000000D+05  .400000000000D+01
28 16 11 20 13 59 44.0  .568399205804D-03  .295585778076D-11  .000000000000D+00
     .100000000000D+01  .476875000000D+02  .393409244217D-08 -.237446202725D+00
     .249221920967D-05  .201127135660D-01  .684894621372D-05  .515363426781D+04
     .503840000000D+05 -.335276126862D-06 -.115328872043D+01  .176951289177D-06
     .989089567825D+00  .268718750000D+03 -.160021382461D+01 -.817676916669D-08
     .246081678861D-09  .100000000000D+01  .192400000000D+04  .000000000000D+00
     .240000000000D+01  .000000000000D+00 -.111758708954D-07  .100000000000D+01
     .462660000000D+05  .400000000000D+01
21 16 11 20 15 59 44.0 -.531033612788D-03  .102318153949D-11  .000000000000D+00
     .900000000000D+01 -.104875000000D+03  .497377860641D-08  .242502713673D+01
    -.544078648090D-05  .234313908732D-01  .813603401184D-05  .515379274559D+04
     .575840000000D+05  .296160578728D-06  .828997781554D+00 -.193715095520D-06
     .937821520351D+00  .207937500000D+03 -.174070411051D+01 -.790604360416D-08
    -.642883921553D-10  .100000000000D+01  .192400000000D+04  .000000000000D+00
     .240000000000D+01  .000000000000D+00 -.977888703346D-08  .900000000000D+01
     .504060000000D+05  .400000000000D+01
28 16 11 20 15 59 44.0  .568420160562D-03  .295585778076D-11  .000000000000D+00
     .380000000000D+02  .360937500000D+02  .385623205612D-08  .812707264177D+00
     .183470547199D-05  .201148031047D-01  .734999775887D-05  .515363867378D+04
     .575840000000D+05 -.299885869026D-06 -.115334678219D+01 -.145286321640D-06
     .989090302210D+00  .257218750000D+03 -.160016828251D+01 -.817926927082D-08
     .471448209139D-10  .100000000000D+01  .192400000000D+04  .000000000000D+00
     .240000000000D+01  .000000000000D+00 -.111758708954D-07  .380000000000D+02
     .504060000000D+05  .400000000000D+01
 1 16 11 20 16  0  0.0  .411071814597D-04  .125055521494D-11  .000000000000D+00
     .580000000000D+02 -.764062500000D+02  .446125725784D-08 -.219230739411D+01
    -.410340726376D-05  .601833476685D-02  .807456672192D-05  .515369971657D+04
     .576000000000D+05  .353902578354D-07  .867648520472D+00 -.109896063805D-06
     .965666869844D+00  .226468750000D+03  .563936656488D+00 -.795425989828D-08
     .111790370803D-09  .100000000000D+01  .192400000000D+04  .000000000000D+00
     .240000000000D+01  .000000000000D+00  .512227416039D-08  .580000000000D+02
     .504060000000D+05  .400000000000D+01
 2 16 11 20 16  0  0.0  .522623304278D-03 -.568434188608D-11  .000000000000D+00
     .660000000000D+02 -.670937500000D+02  .494520598768D-08 -.172292531976D+01
    -.338815152645D-05  .161502881674D-01  .776909291744D-05  .515367676163D+04
     .576000000000D+05  .301748514175D-06  .818297376982D+00  .353902578354D-07
     .944545333224D+00  .214906250000D+03 -.206506368073D+01 -.804462080503D-08
     .106075847056D-09  .100000000000D+01  .192400000000D+04  .000000000000D+00
     .240000000000D+01  .000000000000D+00 -.200234353542D-07  .660000000000D+02
     .504060000000D+05  .400000000000D+01
 3 16 11 20 16  0  0.0 -.991923734546D-04 -.181898940355D-11  .000000000000D+00
     .850000000000D+02  .231250000000D+01  .460162024738D-08  .271869727940D+01
     .875443220139D-07  .374322175048D-03  .950880348682D-05  .515357815170D+04
     .576000000000D+05 -.335276126862D-07  .190981062182D+01 -.335276126862D-07
     .959183924969D+00  .194250000000D+03  .847759291914D+00 -.796604610351D-08
     .176793078427D-09  .100000000000D+01  .192400000000D+04  .000000000000D+00
     .340000000000D+01  .000000000000D+00  .186264514923D-08  .850000000000D+02
     .504060000000D+05  .400000000000D+01
 4 16 11 20 16  0  0.0  .177910551429D-04  .295585778076D-11  .000000000000D+00
     .650000000000D+02  .140312500000D+02  .467983779117D-08  .135956228499D+01
     .512227416039D-06  .831914891023D-02  .614859163761D-05  .515373793411D+04
     .576000000000D+05  .160187482834D-06  .306928700588D+01 -.912696123123D-07
     .966339004630D+00  .258093750000D+03 -.955285761772D+00 -.808426531353D-08
    -.288226291496D-09  .100000000000D+01  .192400000000D+04  .000000000000D+00
     .340000000000D+01  .630000000000D+02 -.419095158577D-08  .650000000000D+02
     .504060000000D+05  .400000000000D+01
 5 16 11 20 16  0  0.0 -.769095495343D-04  .227373675443D-11  .000000000000D+00
     .104000000000D+03  .107187500000D+02  .500306554062D-08  .743536778651D+00
     .754371285439D-06  .489747745451D-02  .943429768085D-05  .515363507080D+04
     .576000000000D+05 -.428408384323D-07  .189552655218D+01  .894069671631D-07
     .946191671972D+00  .188343750000D+03  .555436997118D+00 -.821962809479D-08
     .167149819604D-09  .100000000000D+01  .192400000000D+04  .000000000000D+00
     .240000000000D+01  .000000000000D+00 -.107102096081D-07  .104000000000D+03
     .504060000000D+05  .400000000000D+01
 6 16 11 20 16  0  0.0  .275563914329D-03  .500222085975D-11  .000000000000D+00
     .400000000000D+02 -.712812500000D+02  .451804533758D-08 -.182919749390D+01
    -.366009771824D-05  .321174855344D-03  .853464007378D-05  .515356618118D+04
     .576000000000D+05 -.223517417908D-07  .859256479207D+00  .279396772385D-07
     .965474857457D+00  .217781250000D+03 -.145224399698D+01 -.797854662421D-08
     .253581991279D-10  .100000000000D+01  .192400000000D+04  .000000000000D+00
     .240000000000D+01  .000000000000D+00  .419095158577D-08  .400000000000D+02
     .504060000000D+05  .400000000000D+01
 7 16 11 20 16  0  0.0  .409218482673D-03 -.329691829393D-11  .000000000000D+00
     .940000000000D+02  .200937500000D+02  .428839291449D-08 -.283509798587D+01
     .938773155212D-06  .100513456855D-01  .842474400997D-05  .515362420082D+04
     .576000000000D+05 -.745058059692D-07 -.225739021149D+01 -.121071934700D-06
     .964473683137D+00  .218968750000D+03 -.261582868511D+01 -.784568394709D-08
    -.265011038773D-09  .100000000000D+01  .192400000000D+04  .000000000000D+00
     .340000000000D+01  .000000000000D+00 -.111758708954D-07  .940000000000D+02
     .504060000000D+05  .400000000000D+01
 8 16 11 20 16  0  0.0 -.396273098886D-04 -.136424205266D-11  .000000000000D+00
     .690000000000D+02 -.197500000000D+02  .454661795632D-08  .700405730230D+00
    -.107102096081D-05  .200357055292D-02  .448152422905D-05  .515378249741D+04
     .576000000000D+05  .000000000000D+00 -.193747186599D+00 -.409781932831D-07
     .965312088803D+00  .293468750000D+03 -.995067054023D+00 -.828427364468D-08
     .139291516336D-09  .100000000000D+01  .192400000000D+04  .000000000000D+00
     .240000000000D+01  .000000000000D+00  .512227416039D-08  .690000000000D+02
     .504060000000D+05  .400000000000D+01
 9 16 11 20 16  0  0.0  .248296651989D-03  .727595761418D-11  .000000000000D+00
     .360000000000D+02  .280000000000D+02  .490591863692D-08  .137287955303D+00
     .139698386192D-05  .716064590961D-03  .668130815029D-05  .515374146652D+04
     .576000000000D+05  .204890966415D-07  .294756284292D+01  .428408384323D-07
     .954544477775D+00  .246312500000D+03  .177824217150D+01 -.826105839196D-08
    -.125362364703D-09  .100000000000D+01  .192400000000D+04  .000000000000D+00
     .240000000000D+01  .000000000000D+00  .139698386192D-08  .360000000000D+02
     .504060000000D+05  .400000000000D+01
